BEIDOU-3 M11            
1 43603U 18067B   26191.13328510  .00000110  00000+0  00000+0 0  9990
2 43603  54.1791 180.2259 0004618  13.9452 346.0721  1.86227244 53574
BEIDOU-3 M13            
1 43622U 18072A   26188.94016940 -.00000045  00000+0  00000+0 0  9991
2 43622  56.6422  61.9754 0006453 332.0824  27.9450  1.86231557 53043
BEIDOU-3 M14            
1 43623U 18072B   26189.34256841 -.00000046  00000+0  00000+0 0  9994
2 43623  56.6446  61.9559 0005520  10.5134 349.5598  1.86231219 53040
BEIDOU-3 M16            
1 43647U 18078A   26188.42370037 -.00000062  00000+0  00000+0 0  9996
2 43647  54.0702 299.2766 0006751  40.2464 319.8292  1.86232245 52536
BEIDOU-3 M15            
1 43648U 18078B   26187.47907947 -.00000060  00000+0  00000+0 0  9995
2 43648  54.0667 299.3099 0003770  58.5392 301.5247  1.86232415 52534
BEIDOU-3 G1             
1 43683U 18085A   26191.24216366 -.00000101  00000+0  00000+0 0  9996
2 43683   2.9232  96.7668 0008198 355.1748  83.3480  1.00272939 28295
BEIDOU-3 M17            
1 43706U 18093A   26190.35885625  .00000118  00000+0  00000+0 0  9999
2 43706  54.1700 181.5443 0010162 293.4624  88.7509  1.86228235 51959
BEIDOU-3 M18            
1 43707U 18093B   26191.26314113  .00000110  00000+0  00000+0 0  9992
2 43707  54.1710 181.5060 0008033 322.2689  37.6812  1.86226366 51966
BEIDOU-3 IGSO-1         
1 44204U 19023A   26189.48210734 -.00000209  00000+0  00000+0 0  9994
2 44204  58.7247  37.4318 0025582 224.0549 317.4664  1.00285216  7422
BEIDOU-2 G8             
1 44231U 19027A   26191.31039167 -.00000238  00000+0  00000+0 0  9994
2 44231   1.7130  74.5112 0009822 283.4901 186.4833  1.00273453 26316
BEIDOU-3 IGSO-2         
1 44337U 19035A   26191.30545166 -.00000087  00000+0  00000+0 0  9992
2 44337  55.2507 158.6604 0039608 216.3201 141.9995  1.00259088 25893
BEIDOU-3 M24            
1 44542U 19061A   26190.79451618  .00000116  00000+0  00000+0 0  9991
2 44542  54.3976 181.9655 0008591 359.5370   0.4709  1.86229286 46212
BEIDOU-3 M23            
1 44543U 19061B   26189.43788944  .00000122  00000+0  00000+0 0  9993
2 44543  54.3960 181.9796 0005860 339.6838 102.2392  1.86227401 46199
